ONEWEB-0012             
1 44057U 19010A   26073.86495441  .00000098  00000+0  22247-3 0  9996
2 44057  87.9008 247.5421 0001311 106.9154 253.2121 13.16594264339159
ONEWEB-0010             
1 44058U 19010B   26073.89028708  .00000011  00000+0 -59077-5 0  9997
2 44058  87.9008 247.5320 0002013 100.4484 259.6874 13.16594036339201
ONEWEB-0008             
1 44059U 19010C   26073.91562179  .00000114  00000+0  26584-3 0  9994
2 44059  87.9005 247.5245 0001631  89.9806 270.1512 13.16593767339329
ONEWEB-0007             
1 44060U 19010D   26073.64766034  .00000055  00000+0  11158-3 0  9997
2 44060  87.8934 278.0994 0001680 101.4699 258.6620 13.15547002338943
ONEWEB-0006             
1 44061U 19010E   26073.80374407 -.00000036  00000+0 -12947-3 0  9993
2 44061  87.8943 278.0227 0001797  95.2113 264.9223 13.15547164339010
ONEWEB-0011             
1 44062U 19010F   26073.92416147  .00000112  00000+0  26400-3 0  9997
2 44062  87.8943 278.0068 0001825  87.1085 273.0254 13.15547407339020
ONEWEB-0013             
1 45131U 20008A   26073.95515713 -.00000220  00000+0 -67577-3 0  9998
2 45131  87.8448  71.8441 0000915 101.6334 258.4896 13.09453607293737
ONEWEB-0017             
1 45132U 20008B   26073.92729742  .00000581  00000+0  16275-2 0  9991
2 45132  87.8783  55.0350 0002112  86.2341 273.9028 13.10374367295604
ONEWEB-0020             
1 45133U 20008C   26073.89740275 -.00000596  00000+0 -17442-2 0  9997
2 45133  87.8789  55.0315 0001848  83.4678 276.6660 13.10373848295996
ONEWEB-0021             
1 45134U 20008D   26073.91234453 -.00000042  00000+0 -15576-3 0  9990
2 45134  87.8786  55.0530 0001833  86.6464 273.4873 13.10376139296308
ONEWEB-0023             
1 45136U 20008F   26073.92313468  .00000533  00000+0  14893-2 0  9990
2 45136  87.8782  55.0299 0001677  84.4402 275.6917 13.10376200295730
ONEWEB-0024             
1 45137U 20008G   26073.89573579 -.00000641  00000+0 -18714-2 0  9996
2 45137  87.8792  55.0209 0001884  83.4157 276.7184 13.10373078295894
ONEWEB-0025             
1 45138U 20008H   26073.90142043  .00004489  00000+0  12728-1 0  9997
2 45138  87.8790  55.0111 0001222  83.3846 276.7421 13.10853442296225
ONEWEB-0026             
1 45139U 20008J   26073.93205335 -.00000505  00000+0 -14614-2 0  9999
2 45139  87.8877  39.8027 0002045  80.3398 279.7961 13.11417006298756
ONEWEB-0028             
1 45140U 20008K   26073.88882483  .00000583  00000+0  16090-2 0  9994
2 45140  87.8869  39.8193 0001224  85.7375 274.3893 13.11416202296261
ONEWEB-0032             
1 45141U 20008L   26073.92896487  .00000711  00000+0  19999-2 0  9993
2 45141  87.8784  55.0356 0001369  86.8197 273.3087 13.10374799295955
ONEWEB-0033             
1 45142U 20008M   26073.90402541 -.00000774  00000+0 -22546-2 0  9999
2 45142  87.8787  55.0494 0002546  83.1638 276.9779 13.10371307295869
