[{"OBJECT_NAME":"ONEWEB-0012","OBJECT_ID":"2019-010A","EPOCH":"2026-03-14T20:45:32.061024","MEAN_MOTION":13.16594264,"ECCENTRICITY":0.00013119,"INCLINATION":87.9008,"RA_OF_ASC_NODE":247.5421,"ARG_OF_PERICENTER":106.9154,"MEAN_ANOMALY":253.2121,"EPHEMERIS_TYPE":0,"CLASSIFICATION_TYPE":"U","NORAD_CAT_ID":44057,"ELEMENT_SET_NO":999,"REV_AT_EPOCH":33915,"BSTAR":0.00022246864,"MEAN_MOTION_DOT":9.8e-7,"MEAN_MOTION_DDOT":0},{"OBJECT_NAME":"ONEWEB-0010","OBJECT_ID":"2019-010B","EPOCH":"2026-03-14T21:22:00.803712","MEAN_MOTION":13.16594036,"ECCENTRICITY":0.00020139,"INCLINATION":87.9008,"RA_OF_ASC_NODE":247.532,"ARG_OF_PERICENTER":100.4484,"MEAN_ANOMALY":259.6874,"EPHEMERIS_TYPE":0,"CLASSIFICATION_TYPE":"U","NORAD_CAT_ID":44058,"ELEMENT_SET_NO":999,"REV_AT_EPOCH":33920,"BSTAR":-5.907656e-6,"MEAN_MOTION_DOT":1.1e-7,"MEAN_MOTION_DDOT":0},{"OBJECT_NAME":"ONEWEB-0008","OBJECT_ID":"2019-010C","EPOCH":"2026-03-14T21:58:29.722656","MEAN_MOTION":13.16593767,"ECCENTRICITY":0.00016314,"INCLINATION":87.9005,"RA_OF_ASC_NODE":247.5245,"ARG_OF_PERICENTER":89.9806,"MEAN_ANOMALY":270.1512,"EPHEMERIS_TYPE":0,"CLASSIFICATION_TYPE":"U","NORAD_CAT_ID":44059,"ELEMENT_SET_NO":999,"REV_AT_EPOCH":33932,"BSTAR":0.00026584121,"MEAN_MOTION_DOT":1.14e-6,"MEAN_MOTION_DDOT":0},{"OBJECT_NAME":"ONEWEB-0007","OBJECT_ID":"2019-010D","EPOCH":"2026-03-14T15:32:37.853376","MEAN_MOTION":13.15547002,"ECCENTRICITY":0.00016809,"INCLINATION":87.8934,"RA_OF_ASC_NODE":278.0994,"ARG_OF_PERICENTER":101.4699,"MEAN_ANOMALY":258.662,"EPHEMERIS_TYPE":0,"CLASSIFICATION_TYPE":"U","NORAD_CAT_ID":44060,"ELEMENT_SET_NO":999,"REV_AT_EPOCH":33894,"BSTAR":0.0001115797,"MEAN_MOTION_DOT":5.5e-7,"MEAN_MOTION_DDOT":0},{"OBJECT_NAME":"ONEWEB-0006","OBJECT_ID":"2019-010E","EPOCH":"2026-03-14T19:17:23.487648","MEAN_MOTION":13.15547164,"ECCENTRICITY":0.00017972,"INCLINATION":87.8943,"RA_OF_ASC_NODE":278.0227,"ARG_OF_PERICENTER":95.2113,"MEAN_ANOMALY":264.9223,"EPHEMERIS_TYPE":0,"CLASSIFICATION_TYPE":"U","NORAD_CAT_ID":44061,"ELEMENT_SET_NO":999,"REV_AT_EPOCH":33901,"BSTAR":-0.00012947025,"MEAN_MOTION_DOT":-3.6e-7,"MEAN_MOTION_DDOT":0},{"OBJECT_NAME":"ONEWEB-0011","OBJECT_ID":"2019-010F","EPOCH":"2026-03-14T22:10:47.551008","MEAN_MOTION":13.15547407,"ECCENTRICITY":0.0001825,"INCLINATION":87.8943,"RA_OF_ASC_NODE":278.0068,"ARG_OF_PERICENTER":87.1085,"MEAN_ANOMALY":273.0254,"EPHEMERIS_TYPE":0,"CLASSIFICATION_TYPE":"U","NORAD_CAT_ID":44062,"ELEMENT_SET_NO":999,"REV_AT_EPOCH":33902,"BSTAR":0.00026399959,"MEAN_MOTION_DOT":1.12e-6,"MEAN_MOTION_DDOT":0},{"OBJECT_NAME":"ONEWEB-0013","OBJECT_ID":"2020-008A","EPOCH":"2026-03-14T22:55:25.576032","MEAN_MOTION":13.09453607,"ECCENTRICITY":9.157e-5,"INCLINATION":87.8448,"RA_OF_ASC_NODE":71.8441,"ARG_OF_PERICENTER":101.6334,"MEAN_ANOMALY":258.4896,"EPHEMERIS_TYPE":0,"CLASSIFICATION_TYPE":"U","NORAD_CAT_ID":45131,"ELEMENT_SET_NO":999,"REV_AT_EPOCH":29373,"BSTAR":-0.00067576803,"MEAN_MOTION_DOT":-2.2e-6,"MEAN_MOTION_DDOT":0},{"OBJECT_NAME":"ONEWEB-0017","OBJECT_ID":"2020-008B","EPOCH":"2026-03-14T22:15:18.497088","MEAN_MOTION":13.10374367,"ECCENTRICITY":0.0002112,"INCLINATION":87.8783,"RA_OF_ASC_NODE":55.035,"ARG_OF_PERICENTER":86.2341,"MEAN_ANOMALY":273.9028,"EPHEMERIS_TYPE":0,"CLASSIFICATION_TYPE":"U","NORAD_CAT_ID":45132,"ELEMENT_SET_NO":999,"REV_AT_EPOCH":29560,"BSTAR":0.0016275128,"MEAN_MOTION_DOT":5.81e-6,"MEAN_MOTION_DDOT":0},{"OBJECT_NAME":"ONEWEB-0020","OBJECT_ID":"2020-008C","EPOCH":"2026-03-14T21:32:15.597600","MEAN_MOTION":13.10373848,"ECCENTRICITY":0.00018481,"INCLINATION":87.8789,"RA_OF_ASC_NODE":55.0315,"ARG_OF_PERICENTER":83.4678,"MEAN_ANOMALY":276.666,"EPHEMERIS_TYPE":0,"CLASSIFICATION_TYPE":"U","NORAD_CAT_ID":45133,"ELEMENT_SET_NO":999,"REV_AT_EPOCH":29599,"BSTAR":-0.0017442102,"MEAN_MOTION_DOT":-5.96e-6,"MEAN_MOTION_DDOT":0},{"OBJECT_NAME":"ONEWEB-0021","OBJECT_ID":"2020-008D","EPOCH":"2026-03-14T21:53:46.567392","MEAN_MOTION":13.10376139,"ECCENTRICITY":0.00018335,"INCLINATION":87.8786,"RA_OF_ASC_NODE":55.053,"ARG_OF_PERICENTER":86.6464,"MEAN_ANOMALY":273.4873,"EPHEMERIS_TYPE":0,"CLASSIFICATION_TYPE":"U","NORAD_CAT_ID":45134,"ELEMENT_SET_NO":999,"REV_AT_EPOCH":29630,"BSTAR":-0.0001557626,"MEAN_MOTION_DOT":-4.2e-7,"MEAN_MOTION_DDOT":0},{"OBJECT_NAME":"ONEWEB-0023","OBJECT_ID":"2020-008F","EPOCH":"2026-03-14T22:09:18.836352","MEAN_MOTION":13.103762,"ECCENTRICITY":0.00016772,"INCLINATION":87.8782,"RA_OF_ASC_NODE":55.0299,"ARG_OF_PERICENTER":84.4402,"MEAN_ANOMALY":275.6917,"EPHEMERIS_TYPE":0,"CLASSIFICATION_TYPE":"U","NORAD_CAT_ID":45136,"ELEMENT_SET_NO":999,"REV_AT_EPOCH":29573,"BSTAR":0.0014893399,"MEAN_MOTION_DOT":5.33e-6,"MEAN_MOTION_DDOT":0},{"OBJECT_NAME":"ONEWEB-0024","OBJECT_ID":"2020-008G","EPOCH":"2026-03-14T21:29:51.572256","MEAN_MOTION":13.10373078,"ECCENTRICITY":0.00018841,"INCLINATION":87.8792,"RA_OF_ASC_NODE":55.0209,"ARG_OF_PERICENTER":83.4157,"MEAN_ANOMALY":276.7184,"EPHEMERIS_TYPE":0,"CLASSIFICATION_TYPE":"U","NORAD_CAT_ID":45137,"ELEMENT_SET_NO":999,"REV_AT_EPOCH":29589,"BSTAR":-0.0018713621,"MEAN_MOTION_DOT":-6.41e-6,"MEAN_MOTION_DDOT":0},{"OBJECT_NAME":"ONEWEB-0025","OBJECT_ID":"2020-008H","EPOCH":"2026-03-14T21:38:02.725152","MEAN_MOTION":13.10853442,"ECCENTRICITY":0.00012228,"INCLINATION":87.879,"RA_OF_ASC_NODE":55.0111,"ARG_OF_PERICENTER":83.3846,"MEAN_ANOMALY":276.7421,"EPHEMERIS_TYPE":0,"CLASSIFICATION_TYPE":"U","NORAD_CAT_ID":45138,"ELEMENT_SET_NO":999,"REV_AT_EPOCH":29622,"BSTAR":0.012728178,"MEAN_MOTION_DOT":4.489e-5,"MEAN_MOTION_DDOT":0},{"OBJECT_NAME":"ONEWEB-0026","OBJECT_ID":"2020-008J","EPOCH":"2026-03-14T22:22:09.409440","MEAN_MOTION":13.11417006,"ECCENTRICITY":0.00020455,"INCLINATION":87.8877,"RA_OF_ASC_NODE":39.8027,"ARG_OF_PERICENTER":80.3398,"MEAN_ANOMALY":279.7961,"EPHEMERIS_TYPE":0,"CLASSIFICATION_TYPE":"U","NORAD_CAT_ID":45139,"ELEMENT_SET_NO":999,"REV_AT_EPOCH":29875,"BSTAR":-0.0014614171,"MEAN_MOTION_DOT":-5.05e-6,"MEAN_MOTION_DDOT":0},{"OBJECT_NAME":"ONEWEB-0028","OBJECT_ID":"2020-008K","EPOCH":"2026-03-14T21:19:54.465312","MEAN_MOTION":13.11416202,"ECCENTRICITY":0.00012242,"INCLINATION":87.8869,"RA_OF_ASC_NODE":39.8193,"ARG_OF_PERICENTER":85.7375,"MEAN_ANOMALY":274.3893,"EPHEMERIS_TYPE":0,"CLASSIFICATION_TYPE":"U","NORAD_CAT_ID":45140,"ELEMENT_SET_NO":999,"REV_AT_EPOCH":29626,"BSTAR":0.0016089521,"MEAN_MOTION_DOT":5.83e-6,"MEAN_MOTION_DDOT":0},{"OBJECT_NAME":"ONEWEB-0032","OBJECT_ID":"2020-008L","EPOCH":"2026-03-14T22:17:42.564768","MEAN_MOTION":13.10374799,"ECCENTRICITY":0.00013694,"INCLINATION":87.8784,"RA_OF_ASC_NODE":55.0356,"ARG_OF_PERICENTER":86.8197,"MEAN_ANOMALY":273.3087,"EPHEMERIS_TYPE":0,"CLASSIFICATION_TYPE":"U","NORAD_CAT_ID":45141,"ELEMENT_SET_NO":999,"REV_AT_EPOCH":29595,"BSTAR":0.0019999393,"MEAN_MOTION_DOT":7.11e-6,"MEAN_MOTION_DDOT":0},{"OBJECT_NAME":"ONEWEB-0033","OBJECT_ID":"2020-008M","EPOCH":"2026-03-14T21:41:47.795424","MEAN_MOTION":13.10371307,"ECCENTRICITY":0.00025468,"INCLINATION":87.8787,"RA_OF_ASC_NODE":55.0494,"ARG_OF_PERICENTER":83.1638,"MEAN_ANOMALY":276.9779,"EPHEMERIS_TYPE":0,"CLASSIFICATION_TYPE":"U","NORAD_CAT_ID":45142,"ELEMENT_SET_NO":999,"REV_AT_EPOCH":29586,"BSTAR":-0.0022546122,"MEAN_MOTION_DOT":-7.74e-6,"MEAN_MOTION_DDOT":0}]
